[{"OBJECT_NAME":"EUTELSAT 33F","OBJECT_ID":"2006-032A","EPOCH":"2026-03-14T20:38:50.752896","MEAN_MOTION":1.00274499,"ECCENTRICITY":0.00034678,"INCLINATION":1.4163,"RA_OF_ASC_NODE":83.3344,"ARG_OF_PERICENTER":277.3557,"MEAN_ANOMALY":154.583,"EPHEMERIS_TYPE":0,"CLASSIFICATION_TYPE":"U","NORAD_CAT_ID":29270,"ELEMENT_SET_NO":999,"REV_AT_EPOCH":4636,"BSTAR":0,"MEAN_MOTION_DOT":1.55e-6,"MEAN_MOTION_DDOT":0},{"OBJECT_NAME":"JCSAT-3A","OBJECT_ID":"2006-033A","EPOCH":"2026-03-14T21:05:48.167808","MEAN_MOTION":1.0027239,"ECCENTRICITY":0.0002074,"INCLINATION":0.0365,"RA_OF_ASC_NODE":273.1842,"ARG_OF_PERICENTER":90.9324,"MEAN_ANOMALY":252.8059,"EPHEMERIS_TYPE":0,"CLASSIFICATION_TYPE":"U","NORAD_CAT_ID":29272,"ELEMENT_SET_NO":999,"REV_AT_EPOCH":4679,"BSTAR":0,"MEAN_MOTION_DOT":-3.46e-6,"MEAN_MOTION_DDOT":0},{"OBJECT_NAME":"SYRACUSE 3B","OBJECT_ID":"2006-033B","EPOCH":"2026-03-09T15:34:04.891008","MEAN_MOTION":1.00272288,"ECCENTRICITY":0.00040437,"INCLINATION":2.6424,"RA_OF_ASC_NODE":81.3235,"ARG_OF_PERICENTER":271.6877,"MEAN_ANOMALY":51.1435,"EPHEMERIS_TYPE":0,"CLASSIFICATION_TYPE":"U","NORAD_CAT_ID":29273,"ELEMENT_SET_NO":999,"REV_AT_EPOCH":7167,"BSTAR":0,"MEAN_MOTION_DOT":2.3e-7,"MEAN_MOTION_DDOT":0},{"OBJECT_NAME":"KOREASAT 5 (MUGUNGWHA 5)","OBJECT_ID":"2006-034A","EPOCH":"2026-03-14T20:21:45.599616","MEAN_MOTION":1.0027294,"ECCENTRICITY":0.0001948,"INCLINATION":1.5396,"RA_OF_ASC_NODE":84.2052,"ARG_OF_PERICENTER":311.2025,"MEAN_ANOMALY":195.5456,"EPHEMERIS_TYPE":0,"CLASSIFICATION_TYPE":"U","NORAD_CAT_ID":29349,"ELEMENT_SET_NO":999,"REV_AT_EPOCH":4037,"BSTAR":0,"MEAN_MOTION_DOT":-3.58e-6,"MEAN_MOTION_DDOT":0},{"OBJECT_NAME":"ZHONGXING-22A","OBJECT_ID":"2006-038A","EPOCH":"2026-03-14T11:20:33.362304","MEAN_MOTION":1.0007164,"ECCENTRICITY":7.605e-5,"INCLINATION":11.3226,"RA_OF_ASC_NODE":38.1304,"ARG_OF_PERICENTER":259.0192,"MEAN_ANOMALY":280.9423,"EPHEMERIS_TYPE":0,"CLASSIFICATION_TYPE":"U","NORAD_CAT_ID":29398,"ELEMENT_SET_NO":999,"REV_AT_EPOCH":7143,"BSTAR":0,"MEAN_MOTION_DOT":4.5e-7,"MEAN_MOTION_DDOT":0},{"OBJECT_NAME":"DIRECTV 9S","OBJECT_ID":"2006-043A","EPOCH":"2026-03-14T21:43:14.578176","MEAN_MOTION":1.00272135,"ECCENTRICITY":0.00032346,"INCLINATION":2.1757,"RA_OF_ASC_NODE":82.058,"ARG_OF_PERICENTER":286.2115,"MEAN_ANOMALY":28.8556,"EPHEMERIS_TYPE":0,"CLASSIFICATION_TYPE":"U","NORAD_CAT_ID":29494,"ELEMENT_SET_NO":999,"REV_AT_EPOCH":5043,"BSTAR":0,"MEAN_MOTION_DOT":-1.13e-6,"MEAN_MOTION_DDOT":0},{"OBJECT_NAME":"OPTUS D1","OBJECT_ID":"2006-043B","EPOCH":"2026-03-14T21:12:40.009824","MEAN_MOTION":1.00271555,"ECCENTRICITY":0.00038428,"INCLINATION":2.7903,"RA_OF_ASC_NODE":80.8248,"ARG_OF_PERICENTER":279.3381,"MEAN_ANOMALY":282.4714,"EPHEMERIS_TYPE":0,"CLASSIFICATION_TYPE":"U","NORAD_CAT_ID":29495,"ELEMENT_SET_NO":999,"REV_AT_EPOCH":7117,"BSTAR":0,"MEAN_MOTION_DOT":-1.83e-6,"MEAN_MOTION_DDOT":0},{"OBJECT_NAME":"BLOCK DM-SL R/B","OBJECT_ID":"2006-049B","EPOCH":"2026-03-14T21:04:03.336096","MEAN_MOTION":2.18869181,"ECCENTRICITY":0.69390998,"INCLINATION":0.5599,"RA_OF_ASC_NODE":36.0835,"ARG_OF_PERICENTER":31.5346,"MEAN_ANOMALY":190.3606,"EPHEMERIS_TYPE":0,"CLASSIFICATION_TYPE":"U","NORAD_CAT_ID":29521,"ELEMENT_SET_NO":999,"REV_AT_EPOCH":15487,"BSTAR":0,"MEAN_MOTION_DOT":8.0e-8,"MEAN_MOTION_DDOT":0},{"OBJECT_NAME":"BADR-4","OBJECT_ID":"2006-051A","EPOCH":"2026-03-14T20:36:50.943744","MEAN_MOTION":1.00269831,"ECCENTRICITY":0.00072288,"INCLINATION":1.7598,"RA_OF_ASC_NODE":82.1644,"ARG_OF_PERICENTER":269.9149,"MEAN_ANOMALY":155.8497,"EPHEMERIS_TYPE":0,"CLASSIFICATION_TYPE":"U","NORAD_CAT_ID":29526,"ELEMENT_SET_NO":999,"REV_AT_EPOCH":5032,"BSTAR":0,"MEAN_MOTION_DOT":1.45e-6,"MEAN_MOTION_DDOT":0},{"OBJECT_NAME":"BREEZE-M R/B","OBJECT_ID":"2006-051B","EPOCH":"2026-03-12T21:26:03.814944","MEAN_MOTION":2.09460496,"ECCENTRICITY":0.63406676,"INCLINATION":14.7837,"RA_OF_ASC_NODE":0.1984,"ARG_OF_PERICENTER":260.5823,"MEAN_ANOMALY":27.5526,"EPHEMERIS_TYPE":0,"CLASSIFICATION_TYPE":"U","NORAD_CAT_ID":29527,"ELEMENT_SET_NO":999,"REV_AT_EPOCH":14795,"BSTAR":0,"MEAN_MOTION_DOT":-1.49e-6,"MEAN_MOTION_DDOT":0},{"OBJECT_NAME":"FENGYUN 2D AKM","OBJECT_ID":"2006-053C","EPOCH":"2026-03-14T20:10:15.993696","MEAN_MOTION":0.99354755,"ECCENTRICITY":0.01067713,"INCLINATION":11.636,"RA_OF_ASC_NODE":38.5973,"ARG_OF_PERICENTER":44.3452,"MEAN_ANOMALY":325.9253,"EPHEMERIS_TYPE":0,"CLASSIFICATION_TYPE":"U","NORAD_CAT_ID":29642,"ELEMENT_SET_NO":999,"REV_AT_EPOCH":4532,"BSTAR":0,"MEAN_MOTION_DOT":-2.66e-6,"MEAN_MOTION_DDOT":0},{"OBJECT_NAME":"WILDBLUE-1","OBJECT_ID":"2006-054A","EPOCH":"2026-03-14T21:40:22.352736","MEAN_MOTION":1.00272536,"ECCENTRICITY":0.00015717,"INCLINATION":2.5582,"RA_OF_ASC_NODE":81.6859,"ARG_OF_PERICENTER":277.5554,"MEAN_ANOMALY":27.1608,"EPHEMERIS_TYPE":0,"CLASSIFICATION_TYPE":"U","NORAD_CAT_ID":29643,"ELEMENT_SET_NO":999,"REV_AT_EPOCH":5284,"BSTAR":0,"MEAN_MOTION_DOT":-4.9e-7,"MEAN_MOTION_DDOT":0},{"OBJECT_NAME":"MEASAT-3","OBJECT_ID":"2006-056A","EPOCH":"2026-03-14T21:15:32.235264","MEAN_MOTION":0.99754921,"ECCENTRICITY":0.00055561,"INCLINATION":4.4849,"RA_OF_ASC_NODE":77.3247,"ARG_OF_PERICENTER":232.269,"MEAN_ANOMALY":343.575,"EPHEMERIS_TYPE":0,"CLASSIFICATION_TYPE":"U","NORAD_CAT_ID":29648,"ELEMENT_SET_NO":999,"REV_AT_EPOCH":4944,"BSTAR":0,"MEAN_MOTION_DOT":-1.95e-6,"MEAN_MOTION_DDOT":0},{"OBJECT_NAME":"TITAN 3C TRANSTAGE DEB","OBJECT_ID":"1968-081J","EPOCH":"2026-03-14T13:04:53.357664","MEAN_MOTION":1.00914417,"ECCENTRICITY":0.01303824,"INCLINATION":1.737,"RA_OF_ASC_NODE":39.7567,"ARG_OF_PERICENTER":319.0132,"MEAN_ANOMALY":252.6249,"EPHEMERIS_TYPE":0,"CLASSIFICATION_TYPE":"U","NORAD_CAT_ID":30000,"ELEMENT_SET_NO":999,"REV_AT_EPOCH":7828,"BSTAR":0,"MEAN_MOTION_DOT":-1.15e-6,"MEAN_MOTION_DDOT":0},{"OBJECT_NAME":"BEIDOU-1 G4","OBJECT_ID":"2007-003A","EPOCH":"2026-03-14T18:36:58.467744","MEAN_MOTION":0.99158126,"ECCENTRICITY":0.00570157,"INCLINATION":9.6722,"RA_OF_ASC_NODE":57.943,"ARG_OF_PERICENTER":271.2757,"MEAN_ANOMALY":87.8464,"EPHEMERIS_TYPE":0,"CLASSIFICATION_TYPE":"U","NORAD_CAT_ID":30323,"ELEMENT_SET_NO":999,"REV_AT_EPOCH":6976,"BSTAR":0,"MEAN_MOTION_DOT":-2.46e-6,"MEAN_MOTION_DDOT":0},{"OBJECT_NAME":"THEMIS A","OBJECT_ID":"2007-004A","EPOCH":"2026-03-14T04:27:28.265184","MEAN_MOTION":0.87846514,"ECCENTRICITY":0.84005789,"INCLINATION":6.9118,"RA_OF_ASC_NODE":118.9982,"ARG_OF_PERICENTER":179.6773,"MEAN_ANOMALY":182.3633,"EPHEMERIS_TYPE":0,"CLASSIFICATION_TYPE":"U","NORAD_CAT_ID":30580,"ELEMENT_SET_NO":999,"REV_AT_EPOCH":4044,"BSTAR":-0.032176147,"MEAN_MOTION_DOT":-1.4e-6,"MEAN_MOTION_DDOT":0},{"OBJECT_NAME":"SKYNET 5A","OBJECT_ID":"2007-007B","EPOCH":"2026-03-14T20:56:34.052640","MEAN_MOTION":1.00273944,"ECCENTRICITY":0.00038506,"INCLINATION":5.0614,"RA_OF_ASC_NODE":74.8789,"ARG_OF_PERICENTER":287.3119,"MEAN_ANOMALY":219.6129,"EPHEMERIS_TYPE":0,"CLASSIFICATION_TYPE":"U","NORAD_CAT_ID":30794,"ELEMENT_SET_NO":999,"REV_AT_EPOCH":6975,"BSTAR":0,"MEAN_MOTION_DOT":-2.7e-6,"MEAN_MOTION_DDOT":0},{"OBJECT_NAME":"THEMIS D","OBJECT_ID":"2007-004D","EPOCH":"2026-03-14T21:56:13.333344","MEAN_MOTION":0.87835483,"ECCENTRICITY":0.83539311,"INCLINATION":6.7393,"RA_OF_ASC_NODE":84.2768,"ARG_OF_PERICENTER":217.265,"MEAN_ANOMALY":39.5256,"EPHEMERIS_TYPE":0,"CLASSIFICATION_TYPE":"U","NORAD_CAT_ID":30797,"ELEMENT_SET_NO":999,"REV_AT_EPOCH":4025,"BSTAR":0,"MEAN_MOTION_DOT":-1.18e-6,"MEAN_MOTION_DDOT":0},{"OBJECT_NAME":"THEMIS E","OBJECT_ID":"2007-004E","EPOCH":"2026-03-14T21:58:05.654208","MEAN_MOTION":0.8783725,"ECCENTRICITY":0.83577421,"INCLINATION":4.2866,"RA_OF_ASC_NODE":99.4065,"ARG_OF_PERICENTER":203.1037,"MEAN_ANOMALY":54.3998,"EPHEMERIS_TYPE":0,"CLASSIFICATION_TYPE":"U","NORAD_CAT_ID":30798,"ELEMENT_SET_NO":999,"REV_AT_EPOCH":6508,"BSTAR":0,"MEAN_MOTION_DOT":-1.27e-6,"MEAN_MOTION_DDOT":0},{"OBJECT_NAME":"ANIK F3","OBJECT_ID":"2007-009A","EPOCH":"2026-03-14T16:29:55.649760","MEAN_MOTION":1.00272375,"ECCENTRICITY":0.00027127,"INCLINATION":0.9516,"RA_OF_ASC_NODE":85.0467,"ARG_OF_PERICENTER":275.4637,"MEAN_ANOMALY":300.555,"EPHEMERIS_TYPE":0,"CLASSIFICATION_TYPE":"U","NORAD_CAT_ID":31102,"ELEMENT_SET_NO":999,"REV_AT_EPOCH":4561,"BSTAR":0,"MEAN_MOTION_DOT":-1.0e-8,"MEAN_MOTION_DDOT":0},{"OBJECT_NAME":"BREEZE-M R/B","OBJECT_ID":"2007-009C","EPOCH":"2026-03-14T22:08:57.111936","MEAN_MOTION":1.96450051,"ECCENTRICITY":0.56590177,"INCLINATION":12.076,"RA_OF_ASC_NODE":291.5479,"ARG_OF_PERICENTER":81.7208,"MEAN_ANOMALY":46.0067,"EPHEMERIS_TYPE":0,"CLASSIFICATION_TYPE":"U","NORAD_CAT_ID":31104,"ELEMENT_SET_NO":999,"REV_AT_EPOCH":13587,"BSTAR":0,"MEAN_MOTION_DOT":-3.85e-6,"MEAN_MOTION_DDOT":0},{"OBJECT_NAME":"SATCOM 3 DEB","OBJECT_ID":"1979-101H","EPOCH":"2026-03-08T15:34:20.802432","MEAN_MOTION":1.8305226,"ECCENTRICITY":0.48793398,"INCLINATION":9.023,"RA_OF_ASC_NODE":59.9834,"ARG_OF_PERICENTER":153.6597,"MEAN_ANOMALY":357.2412,"EPHEMERIS_TYPE":0,"CLASSIFICATION_TYPE":"U","NORAD_CAT_ID":31138,"ELEMENT_SET_NO":999,"REV_AT_EPOCH":12880,"BSTAR":0,"MEAN_MOTION_DOT":-1.14e-6,"MEAN_MOTION_DDOT":0},{"OBJECT_NAME":"ASTRA 1L","OBJECT_ID":"2007-016A","EPOCH":"2026-03-14T22:05:04.982784","MEAN_MOTION":1.00269291,"ECCENTRICITY":0.00036008,"INCLINATION":1.0765,"RA_OF_ASC_NODE":82.3015,"ARG_OF_PERICENTER":294.0191,"MEAN_ANOMALY":102.9634,"EPHEMERIS_TYPE":0,"CLASSIFICATION_TYPE":"U","NORAD_CAT_ID":31306,"ELEMENT_SET_NO":999,"REV_AT_EPOCH":4404,"BSTAR":0,"MEAN_MOTION_DOT":-1.85e-6,"MEAN_MOTION_DDOT":0},{"OBJECT_NAME":"GALAXY 17 (G-17)","OBJECT_ID":"2007-016B","EPOCH":"2026-03-14T21:47:51.635328","MEAN_MOTION":1.00271075,"ECCENTRICITY":0.00033862,"INCLINATION":2.7317,"RA_OF_ASC_NODE":81.0945,"ARG_OF_PERICENTER":283.9891,"MEAN_ANOMALY":49.3934,"EPHEMERIS_TYPE":0,"CLASSIFICATION_TYPE":"U","NORAD_CAT_ID":31307,"ELEMENT_SET_NO":999,"REV_AT_EPOCH":6885,"BSTAR":0,"MEAN_MOTION_DOT":-2.06e-6,"MEAN_MOTION_DDOT":0}]
